STARLINK-1347
1 45586U 20025BH  26061.15370397  .00101025  00000+0  16131-2 0  9999
2 45586  53.0463  65.8294 0006030  22.6303 337.4971 15.52393637324995
